[{"OBJECT_NAME":"RESOURCESAT-2","OBJECT_ID":"2011-015A","EPOCH":"2026-03-09T22:09:34.808256","MEAN_MOTION":14.21500709,"ECCENTRICITY":0.00064275,"INCLINATION":98.7721,"RA_OF_ASC_NODE":137.0095,"ARG_OF_PERICENTER":138.2632,"MEAN_ANOMALY":221.9036,"EPHEMERIS_TYPE":0,"CLASSIFICATION_TYPE":"U","NORAD_CAT_ID":37387,"ELEMENT_SET_NO":999,"REV_AT_EPOCH":77207,"BSTAR":-7.3226423e-5,"MEAN_MOTION_DOT":-2.05e-6,"MEAN_MOTION_DDOT":0},{"OBJECT_NAME":"FENGYUN 1C DEB","OBJECT_ID":"1999-025AVX","EPOCH":"2026-03-09T21:56:41.987904","MEAN_MOTION":14.14657327,"ECCENTRICITY":0.00311997,"INCLINATION":98.6893,"RA_OF_ASC_NODE":57.7544,"ARG_OF_PERICENTER":245.1422,"MEAN_ANOMALY":144.6163,"EPHEMERIS_TYPE":0,"CLASSIFICATION_TYPE":"U","NORAD_CAT_ID":30837,"ELEMENT_SET_NO":999,"REV_AT_EPOCH":98051,"BSTAR":0.00037874404,"MEAN_MOTION_DOT":6.89e-6,"MEAN_MOTION_DDOT":0}]
